{"fetched_at":"2026-03-29T02:12:04Z","count":15717,"tles":[{"name":"STARLINK-32830","line1":"1 63034U 25034F   26087.54673193  .00026353  00000+0  89828-3 0  9997","line2":"2 63034  53.1604 170.5528 0001211  88.5129 271.6010 15.30216096 61976","category":"Starlink"}]}