{
  "norad_id": 63034,
  "name": "STARLINK-32830",
  "history": [
    {
      "epoch": "2026-03-28T13:07:17.637888Z",
      "apogee_km": 475.9969452015448,
      "perigee_km": 474.3370749703017,
      "latitude_deg": -3.6285356190735885e-05,
      "longitude_deg": 147.76366240724906,
      "height_km": 476.0436829919942,
      "semi_major_axis_km": 6853.3040100859225,
      "eccentricity": 0.0001211,
      "inclination_deg": 53.1604,
      "raan_deg": 170.5528,
      "arg_perigee_deg": 88.5129,
      "mean_anomaly_deg": 271.601,
      "mean_motion_rev_day": 15.30216096
    }
  ]
}